NORAD_CAT_ID,OBJECT_NAME,OBJECT_TYPE,EPOCH,MEAN_MOTION,ECCENTRICITY,INCLINATION,RA_OF_ASC_NODE,ARG_OF_PERICENTER,MEAN_ANOMALY,BSTAR,MEAN_MOTION_DOT,MEAN_MOTION_DDOT,TLE_LINE0,TLE_LINE1,TLE_LINE2,SEMIMAJOR_AXIS,PERIOD,APOGEE,PERIGEE,DECAYED
56809.0,STARLINK-6040,PAYLOAD,2024-07-15 21:54:46,14.98332238,0.0002913,70.0,61.5986,269.6439,90.4386,6.9145e-05,7.32e-06,0.0,0 STARLINK-6040,1 56809U 23078AU  24197.91303701  .00000732  00000-0  69145-4 0  9996,2 56809  70.0000  61.5986 0002913 269.6439  90.4386 14.98332238 62546,6950.186,96.107,574.076,570.026,0.0
56809.0,STARLINK-6040,PAYLOAD,2024-07-16 01:07:02,14.98331135,0.0002888,69.9999,61.2622,269.4494,90.6334,8.243e-05,8.91e-06,0.0,0 STARLINK-6040,1 56809U 23078AU  24198.04655732  .00000891  00000-0  82430-4 0  9993,2 56809  69.9999  61.2622 0002888 269.4494  90.6334 14.98331135 62566,6950.189,96.107,574.062,570.047,0.0
56809.0,STARLINK-6040,PAYLOAD,2024-07-16 21:56:46,14.98339702,0.0002985,70.0,59.0738,271.4224,88.6593,5.2503e-05,5.34e-06,0.0,0 STARLINK-6040,1 56809U 23078AU  24198.91443039  .00000534  00000-0  52503-4 0  9996,2 56809  70.0000  59.0738 0002985 271.4224  88.6593 14.98339702 62693,6950.163,96.106,574.103,569.953,0.0
56809.0,STARLINK-6040,PAYLOAD,2024-07-17 01:09:02,14.9834279,0.0002976,70.0001,58.7371,271.5397,88.5421,8.5116e-05,9.23e-06,0.0,0 STARLINK-6040,1 56809U 23078AU  24199.04794683  .00000923  00000-0  85116-4 0  9993,2 56809  70.0001  58.7371 0002976 271.5397  88.5421 14.98342790 62976,6950.153,96.106,574.087,569.95,0.0
56809.0,STARLINK-6040,PAYLOAD,2024-07-17 07:33:35,14.98345516,0.0002989,70.0003,58.0637,274.5737,85.508,-0.00024276,-2.99e-05,0.0,0 STARLINK-6040,1 56809U 23078AU  24199.31499007 -.00002990  00000-0 -24276-3 0  9992,2 56809  70.0003  58.0637 0002989 274.5737  85.5080 14.98345516 62754,6950.145,96.106,574.087,569.933,0.0
56809.0,STARLINK-6040,PAYLOAD,2024-07-17 20:22:35,14.98384608,0.0002939,70.0002,56.7171,278.8056,81.277,0.00069499,8.221e-05,0.0,0 STARLINK-6040,1 56809U 23078AU  24199.84902727  .00008221  00000-0  69499-3 0  9995,2 56809  70.0002  56.7171 0002939 278.8056  81.2770 14.98384608 63099,6950.024,96.103,573.932,569.846,0.0
56809.0,STARLINK-6040,PAYLOAD,2024-07-17 21:58:45,14.98353422,0.0003522,70.001,56.5471,288.5747,71.5029,0.00092831,0.00011008,0.0,0 STARLINK-6040,1 56809U 23078AU  24199.91580284  .00011008  00000-0  92831-3 0  9996,2 56809  70.0010  56.5471 0003522 288.5747  71.5029 14.98353422 62844,6950.12,96.105,574.433,569.538,0.0
56809.0,STARLINK-6040,PAYLOAD,2024-07-17 23:34:54,14.98345977,0.0002659,70.0002,56.3814,283.1678,76.9184,0.00024682,2.854e-05,0.0,0 STARLINK-6040,1 56809U 23078AU  24199.98257959  .00002854  00000-0  24682-3 0  9991,2 56809  70.0002  56.3814 0002659 283.1678  76.9184 14.98345977 63116,6950.143,96.106,573.857,570.16,0.0
56809.0,STARLINK-6040,PAYLOAD,2024-07-18 07:35:36,14.983307,0.0002723,70.0004,55.5395,272.7015,87.3832,3.1771e-05,2.86e-06,0.0,0 STARLINK-6040,1 56809U 23078AU  24200.31639177  .00000286  00000-0  31771-4 0  9992,2 56809  70.0004  55.5395 0002723 272.7015  87.3832 14.98330700 63163,6950.191,96.107,573.948,570.163,0.0
56809.0,STARLINK-6040,PAYLOAD,2024-07-18 18:48:33,14.98323198,0.0002361,70.002,54.365,255.6874,104.4023,-6.4357e-05,-8.61e-06,0.0,0 STARLINK-6040,1 56809U 23078AU  24200.78371978 -.00000861  00000-0 -64357-4 0  9992,2 56809  70.0020  54.3650 0002361 255.6874 104.4023 14.98323198 63237,6950.214,96.107,573.72,570.438,0.0
56809.0,STARLINK-6040,PAYLOAD,2024-07-18 22:00:49,14.98320155,0.0002538,70.0009,54.0252,266.0312,94.0557,-0.00011604,-1.477e-05,0.0,0 STARLINK-6040,1 56809U 23078AU  24200.91724274 -.00001477  00000-0 -11604-3 0  9998,2 56809  70.0009  54.0252 0002538 266.0312  94.0557 14.98320155 62996,6950.223,96.108,573.852,570.324,0.0
56809.0,STARLINK-6040,PAYLOAD,2024-07-19 07:37:37,14.98325682,0.0002554,70.001,53.0149,272.8509,87.2357,-8.7976e-05,-1.142e-05,0.0,0 STARLINK-6040,1 56809U 23078AU  24201.31780050 -.00001142  00000-0 -87976-4 0  9992,2 56809  70.0010  53.0149 0002554 272.8509  87.2357 14.98325682 63053,6950.206,96.107,573.846,570.296,0.0
56809.0,STARLINK-6040,PAYLOAD,2024-07-19 20:26:41,14.98354473,0.000288,70.0002,51.6687,275.1973,84.8857,-0.00048056,-5.826e-05,0.0,0 STARLINK-6040,1 56809U 23078AU  24201.85187175 -.00005826  00000-0 -48056-3 0  9998,2 56809  70.0002  51.6687 0002880 275.1973  84.8857 14.98354473 63393,6950.117,96.105,573.984,569.981,0.0
56809.0,STARLINK-6040,PAYLOAD,2024-07-19 22:02:49,14.98356364,0.0002846,70.0002,51.5002,274.7454,85.338,-0.00044738,-5.431e-05,0.0,0 STARLINK-6040,1 56809U 23078AU  24201.91862865 -.00005431  00000-0 -44738-3 0  9996,2 56809  70.0002  51.5002 0002846 274.7454  85.3380 14.98356364 63145,6950.111,96.105,573.954,569.998,0.0
56809.0,STARLINK-6040,PAYLOAD,2024-07-20 07:39:38,14.98330882,0.0002828,70.0,50.4888,273.6859,86.3976,2.2559e-05,1.76e-06,0.0,0 STARLINK-6040,1 56809U 23078AU  24202.31919308  .00000176  00000-0  22559-4 0  9993,2 56809  70.0000  50.4888 0002828 273.6859  86.3976 14.98330882 63464,6950.19,96.107,574.021,570.09,0.0
56809.0,STARLINK-6040,PAYLOAD,2024-07-20 14:04:10,14.9832395,0.0002907,69.9998,49.8153,271.7032,88.3794,0.00028063,3.256e-05,0.0,0 STARLINK-6040,1 56809U 23078AU  24202.58623424  .00003256  00000-0  28063-3 0  9990,2 56809  69.9998  49.8153 0002907 271.7032  88.3794 14.98323950 63248,6950.212,96.107,574.097,570.056,0.0
56809.0,STARLINK-6040,PAYLOAD,2024-07-20 22:04:51,14.98333281,0.0002999,70.0009,48.9735,270.7472,89.3344,0.00037295,4.36e-05,0.0,0 STARLINK-6040,1 56809U 23078AU  24202.92003536  .00004360  00000-0  37295-3 0  9998,2 56809  70.0009  48.9735 0002999 270.7472  89.3344 14.98333281 63293,6950.183,96.107,574.132,569.963,0.0
56809.0,STARLINK-6040,PAYLOAD,2024-07-21 14:06:11,14.98333207,0.0002904,70.0013,47.2899,271.0326,89.05,0.00019124,2.19e-05,0.0,0 STARLINK-6040,1 56809U 23078AU  24203.58763591  .00002190  00000-0  19124-3 0  9995,2 56809  70.0013  47.2899 0002904 271.0326  89.0500 14.98333207 63399,6950.183,96.107,574.066,570.03,0.0
56809.0,STARLINK-6040,PAYLOAD,2024-07-21 20:30:44,14.9833163,0.0002996,70.0012,46.6168,270.8794,89.2022,7.846e-05,8.43e-06,0.0,0 STARLINK-6040,1 56809U 23078AU  24203.85467620  .00000843  00000-0  78460-4 0  9991,2 56809  70.0012  46.6168 0002996 270.8794  89.2022 14.98331630 63699,6950.188,96.107,574.135,569.971,0.0
56809.0,STARLINK-6040,PAYLOAD,2024-07-21 22:06:52,14.98331648,0.0002995,70.0012,46.4485,270.9307,89.1509,7.1455e-05,7.6e-06,0.0,0 STARLINK-6040,1 56809U 23078AU  24203.92143603  .00000760  00000-0  71455-4 0  9996,2 56809  70.0012  46.4485 0002995 270.9307  89.1509 14.98331648 63440,6950.188,96.107,574.134,569.971,0.0
56809.0,STARLINK-6040,PAYLOAD,2024-07-22 12:32:04,14.9833494,0.0002993,70.0014,44.9336,270.7735,89.3081,9.6931e-05,1.064e-05,0.0,0 STARLINK-6040,1 56809U 23078AU  24204.52227365  .00001064  00000-0  96931-4 0  9995,2 56809  70.0014  44.9336 0002993 270.7735  89.3081 14.98334940 63536,6950.178,96.107,574.123,569.962,0.0
56809.0,STARLINK-6040,PAYLOAD,2024-07-22 22:08:52,14.98339404,0.0002936,70.0005,43.9249,268.5528,91.5295,0.00013501,1.519e-05,0.0,0 STARLINK-6040,1 56809U 23078AU  24204.92283038  .00001519  00000-0  13501-3 0  9994,2 56809  70.0005  43.9249 0002936 268.5528  91.5295 14.98339404 63598,6950.164,96.106,574.069,569.988,0.0
56809.0,STARLINK-6040,PAYLOAD,2024-07-22 23:45:00,14.98339782,0.0002939,70.0005,43.7566,268.5875,91.4947,0.00013486,1.517e-05,0.0,0 STARLINK-6040,1 56809U 23078AU  24204.98958974  .00001517  00000-0  13486-3 0  9998,2 56809  70.0005  43.7566 0002939 268.5875  91.4947 14.98339782 63868,6950.163,96.106,574.07,569.985,0.0
56809.0,STARLINK-6040,PAYLOAD,2024-07-23 06:09:33,14.98335021,0.000292,70.0007,43.0821,270.6364,89.4461,8.5446e-05,9.27e-06,0.0,0 STARLINK-6040,1 56809U 23078AU  24205.25663319  .00000927  00000-0  85446-4 0  9995,2 56809  70.0007  43.0821 0002920 270.6364  89.4461 14.98335021 63909,6950.177,96.107,574.072,570.013,0.0
56809.0,STARLINK-6040,PAYLOAD,2024-07-24 12:36:06,14.98332035,0.0002857,70.0012,39.8843,265.6479,94.4353,2.6114e-05,2.19e-06,0.0,0 STARLINK-6040,1 56809U 23078AU  24206.52507637  .00000219  00000-0  26114-4 0  9997,2 56809  70.0012  39.8843 0002857 265.6479  94.4353 14.98332035 64091,6950.187,96.107,574.037,570.066,0.0
56809.0,STARLINK-6040,PAYLOAD,2024-07-24 22:12:54,14.9833465,0.0002802,69.9972,38.8752,270.1646,89.9192,7.9691e-05,8.58e-06,0.0,0 STARLINK-6040,1 56809U 23078AU  24206.92563335  .00000858  00000-0  79691-4 0  9995,2 56809  69.9972  38.8752 0002802 270.1646  89.9192 14.98334650 63890,6950.179,96.107,573.991,570.096,0.0
56809.0,STARLINK-6040,PAYLOAD,2024-07-25 12:38:07,14.983331,0.0002919,70.0004,37.3593,269.6145,90.4679,4.6609e-05,4.63e-06,0.0,0 STARLINK-6040,1 56809U 23078AU  24207.52647275  .00000463  00000-0  46609-4 0  9993,2 56809  70.0004  37.3593 0002919 269.6145  90.4679 14.98333100 64248,6950.183,96.107,574.077,570.02,0.0
56809.0,STARLINK-6040,PAYLOAD,2024-07-25 22:14:55,14.98331437,0.0002985,70.0005,36.3489,270.9112,89.1705,2.4578e-05,2e-06,0.0,0 STARLINK-6040,1 56809U 23078AU  24207.92703315  .00000200  00000-0  24578-4 0  9995,2 56809  70.0005  36.3489 0002985 270.9112  89.1705 14.98331437 64048,6950.188,96.107,574.128,569.979,0.0
56809.0,STARLINK-6040,PAYLOAD,2024-07-26 06:15:35,14.98334111,0.0002996,69.9977,35.507,270.9833,89.0983,6.3241e-05,6.62e-06,0.0,0 STARLINK-6040,1 56809U 23078AU  24208.26083232  .00000662  00000-0  63241-4 0  9994,2 56809  69.9977  35.5070 0002996 270.9833  89.0983 14.98334111 64096,6950.18,96.107,574.127,569.963,0.0
56809.0,STARLINK-6040,PAYLOAD,2024-07-26 22:16:55,14.98340385,0.0003067,69.9974,33.8235,271.7285,88.3522,0.00011381,1.266e-05,0.0,0 STARLINK-6040,1 56809U 23078AU  24208.92842413  .00001266  00000-0  11381-3 0  9999,2 56809  69.9974  33.8235 0003067 271.7285  88.3522 14.98340385 64199,6950.161,96.106,574.157,569.894,0.0
